[
  {
    "COMMENT": "GENERATED VIA SPACETRACK.ORG API",
    "ORIGINATOR": "18 SPCS",
    "NORAD_CAT_ID": "41240",
    "OBJECT_NAME": "JASON 3",
    "OBJECT_TYPE": "PAYLOAD",
    "CLASSIFICATION_TYPE": "U",
    "INTLDES": "16002A",
    "EPOCH": "2023-04-08 12:36:12",
    "EPOCH_MICROSECONDS": "890880",
    "MEAN_MOTION": "12.80928199",
    "ECCENTRICITY": "0.0007911",
    "INCLINATION": "66.0439",
    "RA_OF_ASC_NODE": "36.202",
    "ARG_OF_PERICENTER": "274.0457",
    "MEAN_ANOMALY": "85.9654",
    "EPHEMERIS_TYPE": "0",
    "ELEMENT_SET_NO": "999",
    "REV_AT_EPOCH": "33784",
    "BSTAR": "0.00011599",
    "MEAN_MOTION_DOT": "-0.00000034",
    "MEAN_MOTION_DDOT": "0",
    "FILE": "3883322",
    "TLE_LINE0": "0 JASON 3",
    "TLE_LINE1": "1 41240U 16002A   23098.52514920 -.00000034  00000-0  11599-3 0  9996",
    "TLE_LINE2": "2 41240  66.0439  36.2020 0007911 274.0457  85.9654 12.80928199337842",
    "OBJECT_ID": "2016-002A",
    "OBJECT_NUMBER": "41240",
    "SEMIMAJOR_AXIS": "7715.877",
    "PERIOD": "112.418",
    "APOGEE": "1343.846",
    "PERIGEE": "1331.638",
    "DECAYED": "0"
  },
  {
    "COMMENT": "GENERATED VIA SPACETRACK.ORG API",
    "ORIGINATOR": "18 SPCS",
    "NORAD_CAT_ID": "41240",
    "OBJECT_NAME": "JASON 3",
    "OBJECT_TYPE": "PAYLOAD",
    "CLASSIFICATION_TYPE": "U",
    "INTLDES": "16002A",
    "EPOCH": "2023-04-08 12:36:12",
    "EPOCH_MICROSECONDS": "890880",
    "MEAN_MOTION": "12.80928192",
    "ECCENTRICITY": "0.0007909",
    "INCLINATION": "66.0439",
    "RA_OF_ASC_NODE": "36.2019",
    "ARG_OF_PERICENTER": "274.0632",
    "MEAN_ANOMALY": "85.9479",
    "EPHEMERIS_TYPE": "0",
    "ELEMENT_SET_NO": "999",
    "REV_AT_EPOCH": "33770",
    "BSTAR": "0.00010598",
    "MEAN_MOTION_DOT": "-0.00000037",
    "MEAN_MOTION_DDOT": "0",
    "FILE": "3883527",
    "TLE_LINE0": "0 JASON 3",
    "TLE_LINE1": "1 41240U 16002A   23098.52514920 -.00000037  00000-0  10598-3 0  9997",
    "TLE_LINE2": "2 41240  66.0439  36.2019 0007909 274.0632  85.9479 12.80928192337705",
    "OBJECT_ID": "2016-002A",
    "OBJECT_NUMBER": "41240",
    "SEMIMAJOR_AXIS": "7715.877",
    "PERIOD": "112.418",
    "APOGEE": "1343.845",
    "PERIGEE": "1331.640",
    "DECAYED": "0"
  },
  {
    "COMMENT": "GENERATED VIA SPACETRACK.ORG API",
    "ORIGINATOR": "18 SPCS",
    "NORAD_CAT_ID": "41240",
    "OBJECT_NAME": "JASON 3",
    "OBJECT_TYPE": "PAYLOAD",
    "CLASSIFICATION_TYPE": "U",
    "INTLDES": "16002A",
    "EPOCH": "2023-04-09 12:57:47",
    "EPOCH_MICROSECONDS": "915424",
    "MEAN_MOTION": "12.80928266",
    "ECCENTRICITY": "0.0007901",
    "INCLINATION": "66.0441",
    "RA_OF_ASC_NODE": "34.094",
    "ARG_OF_PERICENTER": "274.0499",
    "MEAN_ANOMALY": "85.9613",
    "EPHEMERIS_TYPE": "0",
    "ELEMENT_SET_NO": "999",
    "REV_AT_EPOCH": "33783",
    "BSTAR": "0.00015392",
    "MEAN_MOTION_DOT": "-0.00000026",
    "MEAN_MOTION_DDOT": "0",
    "FILE": "3884332",
    "TLE_LINE0": "0 JASON 3",
    "TLE_LINE1": "1 41240U 16002A   23099.54013791 -.00000026  00000-0  15392-3 0  9995",
    "TLE_LINE2": "2 41240  66.0441  34.0940 0007901 274.0499  85.9613 12.80928266337836",
    "OBJECT_ID": "2016-002A",
    "OBJECT_NUMBER": "41240",
    "SEMIMAJOR_AXIS": "7715.877",
    "PERIOD": "112.418",
    "APOGEE": "1343.838",
    "PERIGEE": "1331.646",
    "DECAYED": "0"
  },
  {
    "COMMENT": "GENERATED VIA SPACETRACK.ORG API",
    "ORIGINATOR": "18 SPCS",
    "NORAD_CAT_ID": "41240",
    "OBJECT_NAME": "JASON 3",
    "OBJECT_TYPE": "PAYLOAD",
    "CLASSIFICATION_TYPE": "U",
    "INTLDES": "16002A",
    "EPOCH": "2023-04-09 20:27:30",
    "EPOCH_MICROSECONDS": "996576",
    "MEAN_MOTION": "12.8092831",
    "ECCENTRICITY": "0.0007897",
    "INCLINATION": "66.0441",
    "RA_OF_ASC_NODE": "33.4454",
    "ARG_OF_PERICENTER": "274.024",
    "MEAN_ANOMALY": "85.9872",
    "EPHEMERIS_TYPE": "0",
    "ELEMENT_SET_NO": "999",
    "REV_AT_EPOCH": "33801",
    "BSTAR": "0.00017858",
    "MEAN_MOTION_DOT": "-0.0000002",
    "MEAN_MOTION_DDOT": "0",
    "FILE": "3884436",
    "TLE_LINE0": "0 JASON 3",
    "TLE_LINE1": "1 41240U 16002A   23099.85244209 -.00000020  00000-0  17858-3 0  9992",
    "TLE_LINE2": "2 41240  66.0441  33.4454 0007897 274.0240  85.9872 12.80928310338015",
    "OBJECT_ID": "2016-002A",
    "OBJECT_NUMBER": "41240",
    "SEMIMAJOR_AXIS": "7715.877",
    "PERIOD": "112.418",
    "APOGEE": "1343.835",
    "PERIGEE": "1331.649",
    "DECAYED": "0"
  },
  {
    "COMMENT": "GENERATED VIA SPACETRACK.ORG API",
    "ORIGINATOR": "18 SPCS",
    "NORAD_CAT_ID": "41240",
    "OBJECT_NAME": "JASON 3",
    "OBJECT_TYPE": "PAYLOAD",
    "CLASSIFICATION_TYPE": "U",
    "INTLDES": "16002A",
    "EPOCH": "2023-04-09 22:19:56",
    "EPOCH_MICROSECONDS": "767296",
    "MEAN_MOTION": "12.80928312",
    "ECCENTRICITY": "0.0007896",
    "INCLINATION": "66.0441",
    "RA_OF_ASC_NODE": "33.2833",
    "ARG_OF_PERICENTER": "274.0198",
    "MEAN_ANOMALY": "85.9914",
    "EPHEMERIS_TYPE": "0",
    "ELEMENT_SET_NO": "999",
    "REV_AT_EPOCH": "33788",
    "BSTAR": "0.00018",
    "MEAN_MOTION_DOT": "-0.0000002",
    "MEAN_MOTION_DDOT": "0",
    "FILE": "3884641",
    "TLE_LINE0": "0 JASON 3",
    "TLE_LINE1": "1 41240U 16002A   23099.93051814 -.00000020  00000-0  18000-3 0  9999",
    "TLE_LINE2": "2 41240  66.0441  33.2833 0007896 274.0198  85.9914 12.80928312337888",
    "OBJECT_ID": "2016-002A",
    "OBJECT_NUMBER": "41240",
    "SEMIMAJOR_AXIS": "7715.877",
    "PERIOD": "112.418",
    "APOGEE": "1343.834",
    "PERIGEE": "1331.649",
    "DECAYED": "0"
  },
  {
    "COMMENT": "GENERATED VIA SPACETRACK.ORG API",
    "ORIGINATOR": "18 SPCS",
    "NORAD_CAT_ID": "41240",
    "OBJECT_NAME": "JASON 3",
    "OBJECT_TYPE": "PAYLOAD",
    "CLASSIFICATION_TYPE": "U",
    "INTLDES": "16002A",
    "EPOCH": "2023-04-10 13:19:22",
    "EPOCH_MICROSECONDS": "933056",
    "MEAN_MOTION": "12.80928324",
    "ECCENTRICITY": "0.0007883",
    "INCLINATION": "66.0442",
    "RA_OF_ASC_NODE": "31.9861",
    "ARG_OF_PERICENTER": "274.0317",
    "MEAN_ANOMALY": "85.9797",
    "EPHEMERIS_TYPE": "0",
    "ELEMENT_SET_NO": "999",
    "REV_AT_EPOCH": "33796",
    "BSTAR": "0.00013858",
    "MEAN_MOTION_DOT": "-0.00000029",
    "MEAN_MOTION_DDOT": "0",
    "FILE": "3885195",
    "TLE_LINE0": "0 JASON 3",
    "TLE_LINE1": "1 41240U 16002A   23100.55512654 -.00000029  00000-0  13858-3 0  9999",
    "TLE_LINE2": "2 41240  66.0442  31.9861 0007883 274.0317  85.9797 12.80928324337965",
    "OBJECT_ID": "2016-002A",
    "OBJECT_NUMBER": "41240",
    "SEMIMAJOR_AXIS": "7715.877",
    "PERIOD": "112.418",
    "APOGEE": "1343.824",
    "PERIGEE": "1331.659",
    "DECAYED": "0"
  },
  {
    "COMMENT": "GENERATED VIA SPACETRACK.ORG API",
    "ORIGINATOR": "18 SPCS",
    "NORAD_CAT_ID": "41240",
    "OBJECT_NAME": "JASON 3",
    "OBJECT_TYPE": "PAYLOAD",
    "CLASSIFICATION_TYPE": "U",
    "INTLDES": "16002A",
    "EPOCH": "2023-04-10 20:49:06",
    "EPOCH_MICROSECONDS": "9888",
    "MEAN_MOTION": "12.8092836",
    "ECCENTRICITY": "0.0007884",
    "INCLINATION": "66.0442",
    "RA_OF_ASC_NODE": "31.3375",
    "ARG_OF_PERICENTER": "274.0226",
    "MEAN_ANOMALY": "85.9887",
    "EPHEMERIS_TYPE": "0",
    "ELEMENT_SET_NO": "999",
    "REV_AT_EPOCH": "33814",
    "BSTAR": "0.00012933",
    "MEAN_MOTION_DOT": "-0.00000031",
    "MEAN_MOTION_DDOT": "0",
    "FILE": "3885248",
    "TLE_LINE0": "0 JASON 3",
    "TLE_LINE1": "1 41240U 16002A   23100.86743067 -.00000031  00000-0  12933-3 0  9993",
    "TLE_LINE2": "2 41240  66.0442  31.3375 0007884 274.0226  85.9887 12.80928360338140",
    "OBJECT_ID": "2016-002A",
    "OBJECT_NUMBER": "41240",
    "SEMIMAJOR_AXIS": "7715.877",
    "PERIOD": "112.418",
    "APOGEE": "1343.825",
    "PERIGEE": "1331.659",
    "DECAYED": "0"
  },
  {
    "COMMENT": "GENERATED VIA SPACETRACK.ORG API",
    "ORIGINATOR": "18 SPCS",
    "NORAD_CAT_ID": "41240",
    "OBJECT_NAME": "JASON 3",
    "OBJECT_TYPE": "PAYLOAD",
    "CLASSIFICATION_TYPE": "U",
    "INTLDES": "16002A",
    "EPOCH": "2023-04-11 13:40:57",
    "EPOCH_MICROSECONDS": "943776",
    "MEAN_MOTION": "12.80928425",
    "ECCENTRICITY": "0.0007869",
    "INCLINATION": "66.0443",
    "RA_OF_ASC_NODE": "29.8781",
    "ARG_OF_PERICENTER": "274.0422",
    "MEAN_ANOMALY": "85.9693",
    "EPHEMERIS_TYPE": "0",
    "ELEMENT_SET_NO": "999",
    "REV_AT_EPOCH": "33809",
    "BSTAR": "0.00017734",
    "MEAN_MOTION_DOT": "-0.0000002",
    "MEAN_MOTION_DDOT": "0",
    "FILE": "3885783",
    "TLE_LINE0": "0 JASON 3",
    "TLE_LINE1": "1 41240U 16002A   23101.57011509 -.00000020  00000-0  17734-3 0  9993",
    "TLE_LINE2": "2 41240  66.0443  29.8781 0007869 274.0422  85.9693 12.80928425338096",
    "OBJECT_ID": "2016-002A",
    "OBJECT_NUMBER": "41240",
    "SEMIMAJOR_AXIS": "7715.876",
    "PERIOD": "112.418",
    "APOGEE": "1343.813",
    "PERIGEE": "1331.670",
    "DECAYED": "0"
  },
  {
    "COMMENT": "GENERATED VIA SPACETRACK.ORG API",
    "ORIGINATOR": "18 SPCS",
    "NORAD_CAT_ID": "41240",
    "OBJECT_NAME": "JASON 3",
    "OBJECT_TYPE": "PAYLOAD",
    "CLASSIFICATION_TYPE": "U",
    "INTLDES": "16002A",
    "EPOCH": "2023-04-11 21:10:41",
    "EPOCH_MICROSECONDS": "19744",
    "MEAN_MOTION": "12.80928523",
    "ECCENTRICITY": "0.0007863",
    "INCLINATION": "66.0444",
    "RA_OF_ASC_NODE": "29.2296",
    "ARG_OF_PERICENTER": "274.0246",
    "MEAN_ANOMALY": "85.9871",
    "EPHEMERIS_TYPE": "0",
    "ELEMENT_SET_NO": "999",
    "REV_AT_EPOCH": "33813",
    "BSTAR": "0.00025711",
    "MEAN_MOTION_DOT": "-0.00000002",
    "MEAN_MOTION_DDOT": "0",
    "FILE": "3885919",
    "TLE_LINE0": "0 JASON 3",
    "TLE_LINE1": "1 41240U 16002A   23101.88241921 -.00000002  00000-0  25711-3 0  9994",
    "TLE_LINE2": "2 41240  66.0444  29.2296 0007863 274.0246  85.9871 12.80928523338132",
    "OBJECT_ID": "2016-002A",
    "OBJECT_NUMBER": "41240",
    "SEMIMAJOR_AXIS": "7715.876",
    "PERIOD": "112.418",
    "APOGEE": "1343.808",
    "PERIGEE": "1331.674",
    "DECAYED": "0"
  }
]